RADUGA 14 [-]           
1 14725U 84016A   17345.76020624 -.00000102  00000-0  00000-0 0  9999
2 14725  13.8975 338.8148 0002202 300.1429 148.1701  1.00298993 86922
